      2.10          N: GNSS NAV DATA                        RINEX VERSION / TYPE
fic2rin                                 04/10/2020 00:17:43 PGM / RUN BY / DATE
                                                            END OF HEADER
25 20  4  9 16  0  0.0-4.223082214594e-06 2.387423592154e-12 0.000000000000e+00
    6.600000000000e+01 3.025000000000e+01 4.894846747157e-09 2.533640228491e+00
    1.298263669014e-06 9.271419723518e-03 1.125037670135e-06 5.153564239502e+03
    4.032000000000e+05-1.024454832077e-07 1.849951640586e+00-1.061707735062e-07
    9.658508932351e-01 3.583437500000e+02 9.195993352206e-01-8.481424713954e-09
    2.714398779890e-11 1.000000000000e+00 2.100000000000e+03 0.000000000000e+00
    2.400000000000e+00 0.000000000000e+00 5.587935447693e-09 6.600000000000e+01
    3.960000000000e+05 4.000000000000e+00
26 20  4  9 16  0  0.0 1.842370256782e-04 7.389644451905e-12 0.000000000000e+00
    1.840000000000e+02 3.090625000000e+01 5.424511666970e-09 1.865362897383e+00
    1.775100827217e-06 4.742795135826e-03 1.251697540283e-06 5.153595874786e+03
    4.032000000000e+05-2.048909664154e-08 1.815514316396e+00 1.955777406693e-07
    9.469619407658e-01 3.494687500000e+02 2.227947138941e-01-8.869655171026e-09
    5.035924052165e-11 1.000000000000e+00 2.100000000000e+03 0.000000000000e+00
    3.400000000000e+00 0.000000000000e+00 7.450580596924e-09 1.840000000000e+02
    3.960000000000e+05 4.000000000000e+00
 4 20  4  9 16  0  0.0-7.388461381197e-05-5.115907697473e-12 0.000000000000e+00
    9.000000000000e+01-3.593750000000e+01 4.467328939325e-09-9.449297734665e-01
   -1.860782504082e-06 6.624447414652e-04 1.095794141293e-05 5.153702335358e+03
    4.032000000000e+05 9.313225746155e-09-2.139404080710e-01 4.842877388000e-08
    9.603667878630e-01 1.653750000000e+02-2.627168867649e+00-7.962831683902e-09
   -4.810914679621e-10 1.000000000000e+00 2.100000000000e+03 0.000000000000e+00
    2.400000000000e+00 0.000000000000e+00-4.190951585770e-09 3.460000000000e+02
    3.964800000000e+05 4.000000000000e+00
30 20  4  9 15 59 44.0-1.946128904819e-04-8.526512829121e-12 0.000000000000e+00
    2.900000000000e+01 1.451562500000e+02 4.879846122321e-09-2.851459639105e+00
    7.454305887222e-06 4.434383823536e-03 1.094676554203e-05 5.153676536560e+03
    4.031840000000e+05-1.676380634308e-08 8.357923382200e-01-3.166496753693e-08
    9.390014983700e-01 1.616250000000e+02-2.908826401873e+00-8.225699776270e-09
    3.771585673111e-10 1.000000000000e+00 2.100000000000e+03 0.000000000000e+00
    2.400000000000e+00 0.000000000000e+00 3.725290298462e-09 2.900000000000e+01
    3.978600000000e+05 4.000000000000e+00
 5 20  4  9 17 59 44.0-1.056957989931e-05-6.821210263297e-13 0.000000000000e+00
    2.300000000000e+01 1.596875000000e+01 5.287005939305e-09 1.883634401871e+00
    7.729977369308e-07 5.796745885164e-03 4.213303327560e-06 5.153623191833e+03
    4.103840000000e+05-8.195638656616e-08-1.324100764535e+00-5.960464477539e-08
    9.517639883790e-01 2.958437500000e+02 7.875057075508e-01-8.578214459922e-09
    1.596495071856e-10 1.000000000000e+00 2.100000000000e+03 0.000000000000e+00
    2.400000000000e+00 0.000000000000e+00-1.117587089539e-08 2.300000000000e+01
    4.032000000000e+05 4.000000000000e+00
12 20  4  9 17 59 44.0 1.311306841671e-04-4.320099833421e-12 0.000000000000e+00
    5.000000000000e+00 1.150000000000e+01 4.814843414697e-09-2.460900986495e+00
    6.556510925293e-07 8.118377067149e-03 6.817281246185e-07 5.153710891724e+03
    4.103840000000e+05 1.341104507446e-07 1.918270103604e+00-1.490116119385e-08
    9.785206210716e-01 3.759375000000e+02 1.131873596633e+00-8.495711023322e-09
    1.278624688422e-10 1.000000000000e+00 2.100000000000e+03 0.000000000000e+00
    2.400000000000e+00 0.000000000000e+00-1.257285475731e-08 5.000000000000e+00
    4.032000000000e+05 4.000000000000e+00
30 20  4  9 17 59 44.0-1.946743577719e-04-8.526512829121e-12 0.000000000000e+00
    6.200000000000e+01 1.219687500000e+02 4.924490839096e-09-1.801944305847e+00
    6.003305315971e-06 4.436955670826e-03 9.946525096893e-06 5.153669168472e+03
    4.103840000000e+05 9.313225746155e-09 8.357329598380e-01-3.911554813385e-08
    9.390042384156e-01 1.778125000000e+02-2.908157699093e+00-8.239271770169e-09
    3.921591921473e-10 1.000000000000e+00 2.100000000000e+03 0.000000000000e+00
    2.400000000000e+00 0.000000000000e+00 3.725290298462e-09 6.200000000000e+01
    4.032000000000e+05 4.000000000000e+00
 2 20  4  9 18  0  0.0-4.366366192698e-04-6.480149750132e-12 0.000000000000e+00
    4.400000000000e+01 2.200000000000e+01 4.430541692702e-09-7.798224661873e-01
    1.149252057076e-06 1.976109552197e-02 1.330114901066e-05 5.153677730560e+03
    4.104000000000e+05-2.216547727585e-07-2.409226018117e+00 2.346932888031e-07
    9.586870580098e-01 1.292812500000e+02-1.638575755703e+00-8.303203004591e-09
    5.118070331030e-10 1.000000000000e+00 2.100000000000e+03 0.000000000000e+00
    2.400000000000e+00 0.000000000000e+00-1.769512891769e-08 4.400000000000e+01
    4.032000000000e+05 4.000000000000e+00
 1 20  4  9 18  0  0.0-3.529270179570e-04-1.091393642128e-11 0.000000000000e+00
    8.800000000000e+01 1.418750000000e+01 3.887661936724e-09-1.028682421598e+00
    6.742775440216e-07 9.640931501053e-03 1.170113682747e-05 5.153632640839e+03
    4.104000000000e+05 2.086162567139e-07-2.333933871428e+00 1.154839992523e-07
    9.796269426286e-01 1.648125000000e+02 7.594319936194e-01-7.739965257763e-09
    3.493002640438e-10 1.000000000000e+00 2.100000000000e+03 0.000000000000e+00
    2.400000000000e+00 0.000000000000e+00 5.587935447693e-09 8.800000000000e+01
    4.032000000000e+05 4.000000000000e+00
 3 20  4  9 18  0  0.0-1.410325057805e-04-1.080024958355e-11 0.000000000000e+00
    8.900000000000e+01 1.343750000000e+01 4.826986777660e-09-2.096683496381e+00
    7.655471563339e-07 2.714004367590e-03 4.366040229797e-06 5.153570255280e+03
    4.104000000000e+05-1.862645149231e-08-1.292854989240e+00-2.607703208923e-08
    9.648710672786e-01 2.985625000000e+02 6.955966884056e-01-8.294631218970e-09
    1.464346710204e-10 1.000000000000e+00 2.100000000000e+03 0.000000000000e+00
    2.400000000000e+00 0.000000000000e+00 1.862645149231e-09 8.900000000000e+01
    4.032000000000e+05 4.000000000000e+00
13 20  4  9 18  0  0.0 8.009374141693e-07 2.955857780762e-12 0.000000000000e+00
    1.100000000000e+01-2.556250000000e+01 4.229104730616e-09 3.261845034653e-01
   -1.495704054832e-06 4.126427113079e-03 1.200474798679e-05 5.153665489197e+03
    4.104000000000e+05 2.607703208923e-08-1.194421789948e-01 1.303851604462e-08
    9.683121431846e-01 1.527500000000e+02 1.115649321650e+00-7.923901490874e-09
   -5.550231189407e-10 1.000000000000e+00 2.100000000000e+03 0.000000000000e+00
    2.400000000000e+00 0.000000000000e+00-1.117587089539e-08 1.100000000000e+01
    4.032000000000e+05 4.000000000000e+00
10 20  4  9 18  0  0.0-3.049676306546e-04-1.216449163621e-11 0.000000000000e+00
    2.300000000000e+01 1.543750000000e+01 4.830201197268e-09 3.139003446585e+00
    8.195638656616e-07 5.524775478989e-03 4.695728421211e-06 5.153654268265e+03
    4.104000000000e+05-2.235174179077e-08-1.295922146211e+00-5.215406417847e-08
    9.648290083838e-01 2.919375000000e+02-2.636684228116e+00-8.226056934004e-09
    2.257236880119e-10 1.000000000000e+00 2.100000000000e+03 0.000000000000e+00
    2.400000000000e+00 0.000000000000e+00 1.862645149231e-09 2.300000000000e+01
    4.032000000000e+05 4.000000000000e+00
 7 20  4  9 18  0  0.0-2.549076452851e-04-8.526512829121e-12 0.000000000000e+00
    4.900000000000e+01 1.230000000000e+02 4.546260798582e-09-1.784673337848e+00
    6.129965186119e-06 1.356627931818e-02 9.866431355476e-06 5.153682161331e+03
    4.104000000000e+05 1.657754182816e-07 8.123496099648e-01-1.080334186554e-07
    9.536912073982e-01 1.824062500000e+02-2.407352543782e+00-7.932116118761e-09
    4.571618997710e-10 1.000000000000e+00 2.100000000000e+03 0.000000000000e+00
    2.400000000000e+00 0.000000000000e+00-1.117587089539e-08 4.900000000000e+01
    4.032000000000e+05 4.000000000000e+00
 8 20  4  9 18  0  0.0-3.006774932146e-05-1.250555214938e-12 0.000000000000e+00
    2.500000000000e+01-1.213750000000e+02 4.354109937584e-09 1.265597738666e+00
   -6.094574928284e-06 5.331720691174e-03 7.942318916321e-06 5.153653682709e+03
    4.104000000000e+05 6.891787052155e-08 2.880477751506e+00 2.607703208923e-08
    9.700582748894e-01 2.270937500000e+02-1.103392239116e-01-8.113552247732e-09
   -5.232360805973e-10 1.000000000000e+00 2.100000000000e+03 0.000000000000e+00
    2.400000000000e+00 0.000000000000e+00 5.122274160385e-09 2.500000000000e+01
    4.032000000000e+05 4.000000000000e+00
 9 20  4  9 18  0  0.0-1.943856477737e-04-7.844391802792e-12 0.000000000000e+00
    6.100000000000e+01-4.378125000000e+01 4.588405411217e-09 1.468826015414e+00
   -2.237036824226e-06 1.597693189979e-03 1.008622348309e-05 5.153758487701e+03
    4.104000000000e+05 5.587935447693e-09-2.615124968852e-01 1.490116119385e-08
    9.530368953435e-01 1.800937500000e+02 1.801482921966e+00-8.081408051655e-09
   -4.914490422538e-10 1.000000000000e+00 2.100000000000e+03 0.000000000000e+00
    2.400000000000e+00 0.000000000000e+00 1.396983861923e-09 6.100000000000e+01
    4.032000000000e+05 4.000000000000e+00
 6 20  4  9 18  0  0.0-2.492619678378e-04-7.844391802792e-12 0.000000000000e+00
    9.400000000000e+01 2.159375000000e+01 3.861589422128e-09-9.013292819482e-01
    1.089647412300e-06 1.931455917656e-03 1.294165849686e-05 5.153786844254e+03
    4.104000000000e+05-7.264316082001e-08-2.342180400621e+00 1.136213541031e-07
    9.792067223361e-01 1.415625000000e+02-1.065262217110e+00-7.680677073887e-09
    5.164500836475e-10 1.000000000000e+00 2.100000000000e+03 0.000000000000e+00
    2.400000000000e+00 0.000000000000e+00 4.656612873077e-09 9.400000000000e+01
    4.032000000000e+05 4.000000000000e+00
